[{"OBJECT_NAME":"ALOS (DAICHI)","OBJECT_ID":"2006-002A","EPOCH":"2026-03-27T19:33:58.159872","MEAN_MOTION":14.69863283,"ECCENTRICITY":8.35e-5,"INCLINATION":98.1246,"RA_OF_ASC_NODE":42.6838,"ARG_OF_PERICENTER":105.3343,"MEAN_ANOMALY":254.7955,"EPHEMERIS_TYPE":0,"CLASSIFICATION_TYPE":"U","NORAD_CAT_ID":28931,"ELEMENT_SET_NO":999,"REV_AT_EPOCH":7614,"BSTAR":0.00022192,"MEAN_MOTION_DOT":1.277e-5,"MEAN_MOTION_DDOT":0},{"OBJECT_NAME":"H-2A R/B","OBJECT_ID":"2006-002B","EPOCH":"2026-03-27T10:09:26.284896","MEAN_MOTION":15.16801424,"ECCENTRICITY":0.0052384,"INCLINATION":98.2443,"RA_OF_ASC_NODE":234.9807,"ARG_OF_PERICENTER":180.3934,"MEAN_ANOMALY":179.7264,"EPHEMERIS_TYPE":0,"CLASSIFICATION_TYPE":"U","NORAD_CAT_ID":28932,"ELEMENT_SET_NO":999,"REV_AT_EPOCH":9712,"BSTAR":0.00056709,"MEAN_MOTION_DOT":0.0001147,"MEAN_MOTION_DDOT":0},{"OBJECT_NAME":"RESURS-DK 1","OBJECT_ID":"2006-021A","EPOCH":"2026-03-27T17:15:05.800032","MEAN_MOTION":15.12856516,"ECCENTRICITY":0.000109,"INCLINATION":69.9337,"RA_OF_ASC_NODE":190.3856,"ARG_OF_PERICENTER":58.0964,"MEAN_ANOMALY":302.0308,"EPHEMERIS_TYPE":0,"CLASSIFICATION_TYPE":"U","NORAD_CAT_ID":29228,"ELEMENT_SET_NO":999,"REV_AT_EPOCH":9025,"BSTAR":0.00013048,"MEAN_MOTION_DOT":2.192e-5,"MEAN_MOTION_DDOT":0},{"OBJECT_NAME":"CZ-4B R/B","OBJECT_ID":"2006-046C","EPOCH":"2026-03-27T16:23:10.862304","MEAN_MOTION":15.17079136,"ECCENTRICITY":0.0032629,"INCLINATION":97.5561,"RA_OF_ASC_NODE":131.5422,"ARG_OF_PERICENTER":202.6193,"MEAN_ANOMALY":157.3604,"EPHEMERIS_TYPE":0,"CLASSIFICATION_TYPE":"U","NORAD_CAT_ID":29507,"ELEMENT_SET_NO":999,"REV_AT_EPOCH":6277,"BSTAR":0.00022048,"MEAN_MOTION_DOT":4.355e-5,"MEAN_MOTION_DDOT":0},{"OBJECT_NAME":"CZ-2C R/B","OBJECT_ID":"2007-010B","EPOCH":"2026-03-27T19:57:30.680640","MEAN_MOTION":14.20252534,"ECCENTRICITY":0.0058028,"INCLINATION":98.3998,"RA_OF_ASC_NODE":199.2028,"ARG_OF_PERICENTER":240.8462,"MEAN_ANOMALY":118.6901,"EPHEMERIS_TYPE":0,"CLASSIFICATION_TYPE":"U","NORAD_CAT_ID":31114,"ELEMENT_SET_NO":999,"REV_AT_EPOCH":98229,"BSTAR":7.7814e-5,"MEAN_MOTION_DOT":1.28e-6,"MEAN_MOTION_DDOT":0},{"OBJECT_NAME":"COSMO-SKYMED 1","OBJECT_ID":"2007-023A","EPOCH":"2026-03-27T20:24:15.895872","MEAN_MOTION":14.96662152,"ECCENTRICITY":9.35e-5,"INCLINATION":97.8878,"RA_OF_ASC_NODE":278.0303,"ARG_OF_PERICENTER":97.4773,"MEAN_ANOMALY":262.6554,"EPHEMERIS_TYPE":0,"CLASSIFICATION_TYPE":"U","NORAD_CAT_ID":31598,"ELEMENT_SET_NO":999,"REV_AT_EPOCH":1762,"BSTAR":0.00027592,"MEAN_MOTION_DOT":3.088e-5,"MEAN_MOTION_DDOT":0},{"OBJECT_NAME":"COSMOS 2428","OBJECT_ID":"2007-029A","EPOCH":"2026-03-27T15:47:51.641376","MEAN_MOTION":14.12948202,"ECCENTRICITY":0.0009691,"INCLINATION":70.9436,"RA_OF_ASC_NODE":165.6314,"ARG_OF_PERICENTER":258.6347,"MEAN_ANOMALY":101.3686,"EPHEMERIS_TYPE":0,"CLASSIFICATION_TYPE":"U","NORAD_CAT_ID":31792,"ELEMENT_SET_NO":999,"REV_AT_EPOCH":96663,"BSTAR":-1.1861e-6,"MEAN_MOTION_DOT":-5.0e-7,"MEAN_MOTION_DDOT":0},{"OBJECT_NAME":"SL-16 R/B","OBJECT_ID":"2007-029B","EPOCH":"2026-03-27T21:31:25.965120","MEAN_MOTION":14.148433,"ECCENTRICITY":0.0002668,"INCLINATION":70.9749,"RA_OF_ASC_NODE":134.1136,"ARG_OF_PERICENTER":277.7529,"MEAN_ANOMALY":253.9641,"EPHEMERIS_TYPE":0,"CLASSIFICATION_TYPE":"U","NORAD_CAT_ID":31793,"ELEMENT_SET_NO":999,"REV_AT_EPOCH":96794,"BSTAR":5.6775e-5,"MEAN_MOTION_DOT":6.2e-7,"MEAN_MOTION_DDOT":0},{"OBJECT_NAME":"KORONAS-FOTON","OBJECT_ID":"2009-003A","EPOCH":"2026-03-27T17:19:12.517824","MEAN_MOTION":15.43788912,"ECCENTRICITY":0.0011773,"INCLINATION":82.4275,"RA_OF_ASC_NODE":257.1214,"ARG_OF_PERICENTER":91.4339,"MEAN_ANOMALY":268.8258,"EPHEMERIS_TYPE":0,"CLASSIFICATION_TYPE":"U","NORAD_CAT_ID":33504,"ELEMENT_SET_NO":999,"REV_AT_EPOCH":94852,"BSTAR":0.00028905,"MEAN_MOTION_DOT":0.00013152,"MEAN_MOTION_DDOT":0},{"OBJECT_NAME":"CZ-2C R/B","OBJECT_ID":"2011-030B","EPOCH":"2026-03-27T20:23:09.449952","MEAN_MOTION":14.81284285,"ECCENTRICITY":0.0051146,"INCLINATION":97.8574,"RA_OF_ASC_NODE":43.7534,"ARG_OF_PERICENTER":292.0302,"MEAN_ANOMALY":121.5262,"EPHEMERIS_TYPE":0,"CLASSIFICATION_TYPE":"U","NORAD_CAT_ID":37731,"ELEMENT_SET_NO":999,"REV_AT_EPOCH":79278,"BSTAR":0.00019097,"MEAN_MOTION_DOT":1.467e-5,"MEAN_MOTION_DDOT":0},{"OBJECT_NAME":"H-2A R/B","OBJECT_ID":"2012-025E","EPOCH":"2026-03-27T20:43:58.060416","MEAN_MOTION":14.95292979,"ECCENTRICITY":0.0042712,"INCLINATION":98.4761,"RA_OF_ASC_NODE":55.3701,"ARG_OF_PERICENTER":252.7863,"MEAN_ANOMALY":106.8678,"EPHEMERIS_TYPE":0,"CLASSIFICATION_TYPE":"U","NORAD_CAT_ID":38341,"ELEMENT_SET_NO":999,"REV_AT_EPOCH":75093,"BSTAR":0.00032806,"MEAN_MOTION_DOT":3.61e-5,"MEAN_MOTION_DDOT":0},{"OBJECT_NAME":"SHIJIAN-16 (SJ-16)","OBJECT_ID":"2013-057A","EPOCH":"2026-03-27T20:42:55.791936","MEAN_MOTION":14.92417056,"ECCENTRICITY":0.0015256,"INCLINATION":74.9724,"RA_OF_ASC_NODE":150.6858,"ARG_OF_PERICENTER":65.4412,"MEAN_ANOMALY":294.8364,"EPHEMERIS_TYPE":0,"CLASSIFICATION_TYPE":"U","NORAD_CAT_ID":39358,"ELEMENT_SET_NO":999,"REV_AT_EPOCH":67421,"BSTAR":0.00016711,"MEAN_MOTION_DOT":1.687e-5,"MEAN_MOTION_DDOT":0},{"OBJECT_NAME":"SL-4 R/B","OBJECT_ID":"2014-021B","EPOCH":"2026-03-27T17:45:28.096128","MEAN_MOTION":15.3978711,"ECCENTRICITY":0.0095736,"INCLINATION":51.6043,"RA_OF_ASC_NODE":249.1796,"ARG_OF_PERICENTER":168.7371,"MEAN_ANOMALY":191.5787,"EPHEMERIS_TYPE":0,"CLASSIFICATION_TYPE":"U","NORAD_CAT_ID":39679,"ELEMENT_SET_NO":999,"REV_AT_EPOCH":65905,"BSTAR":0.00039896,"MEAN_MOTION_DOT":0.00018474,"MEAN_MOTION_DDOT":0},{"OBJECT_NAME":"ALOS-2","OBJECT_ID":"2014-029A","EPOCH":"2026-03-27T20:15:47.881152","MEAN_MOTION":14.79443322,"ECCENTRICITY":0.0001931,"INCLINATION":97.9186,"RA_OF_ASC_NODE":185.1773,"ARG_OF_PERICENTER":103.1442,"MEAN_ANOMALY":256.9985,"EPHEMERIS_TYPE":0,"CLASSIFICATION_TYPE":"U","NORAD_CAT_ID":39766,"ELEMENT_SET_NO":999,"REV_AT_EPOCH":63955,"BSTAR":0.00027395,"MEAN_MOTION_DOT":1.994e-5,"MEAN_MOTION_DDOT":0},{"OBJECT_NAME":"YAOGAN-29","OBJECT_ID":"2015-069A","EPOCH":"2026-03-27T19:25:34.112640","MEAN_MOTION":14.83012139,"ECCENTRICITY":5.94e-5,"INCLINATION":98.0125,"RA_OF_ASC_NODE":115.286,"ARG_OF_PERICENTER":6.7078,"MEAN_ANOMALY":353.4143,"EPHEMERIS_TYPE":0,"CLASSIFICATION_TYPE":"U","NORAD_CAT_ID":41038,"ELEMENT_SET_NO":999,"REV_AT_EPOCH":55856,"BSTAR":-1.0534e-5,"MEAN_MOTION_DOT":-1.4e-6,"MEAN_MOTION_DDOT":0},{"OBJECT_NAME":"ASTRO-H (HITOMI)","OBJECT_ID":"2016-012A","EPOCH":"2026-03-27T17:53:34.855584","MEAN_MOTION":15.10114372,"ECCENTRICITY":0.000962,"INCLINATION":30.9986,"RA_OF_ASC_NODE":240.0182,"ARG_OF_PERICENTER":153.3747,"MEAN_ANOMALY":206.7386,"EPHEMERIS_TYPE":0,"CLASSIFICATION_TYPE":"U","NORAD_CAT_ID":41337,"ELEMENT_SET_NO":999,"REV_AT_EPOCH":55496,"BSTAR":0.00017214,"MEAN_MOTION_DOT":2.973e-5,"MEAN_MOTION_DDOT":0},{"OBJECT_NAME":"HXMT (HUIYAN)","OBJECT_ID":"2017-034A","EPOCH":"2026-03-27T21:03:37.638144","MEAN_MOTION":15.17687785,"ECCENTRICITY":0.003202,"INCLINATION":43.0141,"RA_OF_ASC_NODE":275.5391,"ARG_OF_PERICENTER":347.1678,"MEAN_ANOMALY":12.8353,"EPHEMERIS_TYPE":0,"CLASSIFICATION_TYPE":"U","NORAD_CAT_ID":42758,"ELEMENT_SET_NO":999,"REV_AT_EPOCH":48530,"BSTAR":0.00025645,"MEAN_MOTION_DOT":5.09e-5,"MEAN_MOTION_DDOT":0}]
